ONEWEB-0034             
1 45454U 20020AG  25229.61694031 -.00000488  00000+0 -14131-2 0  9999
2 45454  87.8787  81.5481 0001759  83.2480 276.8848 13.11416588262802
ONEWEB-0060             
1 45455U 20020AH  25229.58816122  .00000482  00000+0  13229-2 0  9992
2 45455  87.8784  81.5825 0002785  66.7720 293.3701 13.11418313262759
ONEWEB-0086             
1 45456U 20020AJ  25229.56694885  .00000284  00000+0  76503-3 0  9996
2 45456  87.8794  81.5558 0001976  60.9601 299.1724 13.11419070262816
ONEWEB-0088             
1 45457U 20020AK  25229.54487850 -.00000508  00000+0 -14683-2 0  9998
2 45457  87.8789  81.5068 0001859  86.3275 273.8065 13.11417636262741
ONEWEB-0102             
1 47258U 20100A   25229.55839266  .00000265  00000+0  70234-3 0  9994
2 47258  87.8858  51.0306 0001596  89.7245 270.4066 13.12443409224906
ONEWEB-0109             
1 47259U 20100B   25229.49027287  .00000362  00000+0  97215-3 0  9996
2 47259  87.8852  51.0141 0001641  87.8867 272.2450 13.12442828224729
ONEWEB-0110             
1 47260U 20100C   25229.43996985 -.00000020  00000+0 -91935-4 0  9999
2 47260  87.8859  51.0074 0001824  80.8738 279.2597 13.12442735224889
ONEWEB-0111             
1 47261U 20100D   25229.54702299 -.00000072  00000+0 -23597-3 0  9990
2 47261  87.8863  51.0024 0001729  89.9708 270.1618 13.12444734224730
ONEWEB-0114             
1 47262U 20100E   25229.50161589  .00000426  00000+0  11483-2 0  9999
2 47262  87.8847  51.0072 0001447  95.4824 264.6469 13.12441176224687
ONEWEB-0117             
1 47263U 20100F   25229.49351039  .00000450  00000+0  12166-2 0  9995
2 47263  87.8860  51.0047 0001804  88.9243 271.2092 13.12442172224698
ONEWEB-0118             
1 47264U 20100G   25229.52594007 -.00000310  00000+0 -89649-3 0  9992
2 47264  87.8859  50.9980 0001668 101.9359 258.1957 13.12442890224896
ONEWEB-0119             
1 47265U 20100H   25229.55352864  .00000117  00000+0  28982-3 0  9995
2 47265  87.8854  51.0312 0001730  88.4833 271.6494 13.12443535224870
ONEWEB-0120             
1 47266U 20100J   25229.27142404  .00000360  00000+0  96606-3 0  9990
2 47266  87.8865  51.0865 0001625  91.0714 269.0601 13.12440578224861
ONEWEB-0121             
1 47267U 20100K   25229.56488778  .00000424  00000+0  11439-2 0  9991
2 47267  87.8856  50.9963 0001795  86.6193 273.5141 13.12444482224810
ONEWEB-0122             
1 47268U 20100L   25229.55987590  .00000334  00000+0  89231-3 0  9993
2 47268  87.8854  51.0002 0001668  85.5561 274.5758 13.12443278224728
ONEWEB-0123             
1 47269U 20100M   25229.55513195 -.00000371  00000+0 -10667-2 0  9999
2 47269  87.8852  51.0291 0001805  93.9071 266.2264 13.12444894224869
ONEWEB-0124             
1 47270U 20100N   25229.54378373 -.00000241  00000+0 -70660-3 0  9993
2 47270  87.8865  51.0322 0001943  87.9885 272.1466 13.12443836224741
