[{"OBJECT_NAME":"ONEWEB-0034","OBJECT_ID":"2020-020AG","EPOCH":"2025-08-17T14:48:23.642784","MEAN_MOTION":13.11416588,"ECCENTRICITY":0.0001759,"INCLINATION":87.8787,"RA_OF_ASC_NODE":81.5481,"ARG_OF_PERICENTER":83.248,"MEAN_ANOMALY":276.8848,"EPHEMERIS_TYPE":0,"CLASSIFICATION_TYPE":"U","NORAD_CAT_ID":45454,"ELEMENT_SET_NO":999,"REV_AT_EPOCH":26280,"BSTAR":-0.0014131,"MEAN_MOTION_DOT":-4.88e-6,"MEAN_MOTION_DDOT":0},{"OBJECT_NAME":"ONEWEB-0060","OBJECT_ID":"2020-020AH","EPOCH":"2025-08-17T14:06:57.129408","MEAN_MOTION":13.11418313,"ECCENTRICITY":0.0002785,"INCLINATION":87.8784,"RA_OF_ASC_NODE":81.5825,"ARG_OF_PERICENTER":66.772,"MEAN_ANOMALY":293.3701,"EPHEMERIS_TYPE":0,"CLASSIFICATION_TYPE":"U","NORAD_CAT_ID":45455,"ELEMENT_SET_NO":999,"REV_AT_EPOCH":26275,"BSTAR":0.0013229,"MEAN_MOTION_DOT":4.82e-6,"MEAN_MOTION_DDOT":0},{"OBJECT_NAME":"ONEWEB-0086","OBJECT_ID":"2020-020AJ","EPOCH":"2025-08-17T13:36:24.380640","MEAN_MOTION":13.1141907,"ECCENTRICITY":0.0001976,"INCLINATION":87.8794,"RA_OF_ASC_NODE":81.5558,"ARG_OF_PERICENTER":60.9601,"MEAN_ANOMALY":299.1724,"EPHEMERIS_TYPE":0,"CLASSIFICATION_TYPE":"U","NORAD_CAT_ID":45456,"ELEMENT_SET_NO":999,"REV_AT_EPOCH":26281,"BSTAR":0.00076503,"MEAN_MOTION_DOT":2.84e-6,"MEAN_MOTION_DDOT":0},{"OBJECT_NAME":"ONEWEB-0088","OBJECT_ID":"2020-020AK","EPOCH":"2025-08-17T13:04:37.502400","MEAN_MOTION":13.11417636,"ECCENTRICITY":0.0001859,"INCLINATION":87.8789,"RA_OF_ASC_NODE":81.5068,"ARG_OF_PERICENTER":86.3275,"MEAN_ANOMALY":273.8065,"EPHEMERIS_TYPE":0,"CLASSIFICATION_TYPE":"U","NORAD_CAT_ID":45457,"ELEMENT_SET_NO":999,"REV_AT_EPOCH":26274,"BSTAR":-0.0014683,"MEAN_MOTION_DOT":-5.08e-6,"MEAN_MOTION_DDOT":0},{"OBJECT_NAME":"ONEWEB-0102","OBJECT_ID":"2020-100A","EPOCH":"2025-08-17T13:24:05.125824","MEAN_MOTION":13.12443409,"ECCENTRICITY":0.0001596,"INCLINATION":87.8858,"RA_OF_ASC_NODE":51.0306,"ARG_OF_PERICENTER":89.7245,"MEAN_ANOMALY":270.4066,"EPHEMERIS_TYPE":0,"CLASSIFICATION_TYPE":"U","NORAD_CAT_ID":47258,"ELEMENT_SET_NO":999,"REV_AT_EPOCH":22490,"BSTAR":0.00070234,"MEAN_MOTION_DOT":2.65e-6,"MEAN_MOTION_DDOT":0},{"OBJECT_NAME":"ONEWEB-0109","OBJECT_ID":"2020-100B","EPOCH":"2025-08-17T11:45:59.575968","MEAN_MOTION":13.12442828,"ECCENTRICITY":0.0001641,"INCLINATION":87.8852,"RA_OF_ASC_NODE":51.0141,"ARG_OF_PERICENTER":87.8867,"MEAN_ANOMALY":272.245,"EPHEMERIS_TYPE":0,"CLASSIFICATION_TYPE":"U","NORAD_CAT_ID":47259,"ELEMENT_SET_NO":999,"REV_AT_EPOCH":22472,"BSTAR":0.00097215,"MEAN_MOTION_DOT":3.62e-6,"MEAN_MOTION_DDOT":0},{"OBJECT_NAME":"ONEWEB-0110","OBJECT_ID":"2020-100C","EPOCH":"2025-08-17T10:33:33.395040","MEAN_MOTION":13.12442735,"ECCENTRICITY":0.0001824,"INCLINATION":87.8859,"RA_OF_ASC_NODE":51.0074,"ARG_OF_PERICENTER":80.8738,"MEAN_ANOMALY":279.2597,"EPHEMERIS_TYPE":0,"CLASSIFICATION_TYPE":"U","NORAD_CAT_ID":47260,"ELEMENT_SET_NO":999,"REV_AT_EPOCH":22488,"BSTAR":-9.1935e-5,"MEAN_MOTION_DOT":-2.0e-7,"MEAN_MOTION_DDOT":0},{"OBJECT_NAME":"ONEWEB-0111","OBJECT_ID":"2020-100D","EPOCH":"2025-08-17T13:07:42.786336","MEAN_MOTION":13.12444734,"ECCENTRICITY":0.0001729,"INCLINATION":87.8863,"RA_OF_ASC_NODE":51.0024,"ARG_OF_PERICENTER":89.9708,"MEAN_ANOMALY":270.1618,"EPHEMERIS_TYPE":0,"CLASSIFICATION_TYPE":"U","NORAD_CAT_ID":47261,"ELEMENT_SET_NO":999,"REV_AT_EPOCH":22473,"BSTAR":-0.00023597,"MEAN_MOTION_DOT":-7.2e-7,"MEAN_MOTION_DDOT":0},{"OBJECT_NAME":"ONEWEB-0114","OBJECT_ID":"2020-100E","EPOCH":"2025-08-17T12:02:19.612896","MEAN_MOTION":13.12441176,"ECCENTRICITY":0.0001447,"INCLINATION":87.8847,"RA_OF_ASC_NODE":51.0072,"ARG_OF_PERICENTER":95.4824,"MEAN_ANOMALY":264.6469,"EPHEMERIS_TYPE":0,"CLASSIFICATION_TYPE":"U","NORAD_CAT_ID":47262,"ELEMENT_SET_NO":999,"REV_AT_EPOCH":22468,"BSTAR":0.0011483,"MEAN_MOTION_DOT":4.26e-6,"MEAN_MOTION_DDOT":0},{"OBJECT_NAME":"ONEWEB-0117","OBJECT_ID":"2020-100F","EPOCH":"2025-08-17T11:50:39.297696","MEAN_MOTION":13.12442172,"ECCENTRICITY":0.0001804,"INCLINATION":87.886,"RA_OF_ASC_NODE":51.0047,"ARG_OF_PERICENTER":88.9243,"MEAN_ANOMALY":271.2092,"EPHEMERIS_TYPE":0,"CLASSIFICATION_TYPE":"U","NORAD_CAT_ID":47263,"ELEMENT_SET_NO":999,"REV_AT_EPOCH":22469,"BSTAR":0.0012166,"MEAN_MOTION_DOT":4.5e-6,"MEAN_MOTION_DDOT":0},{"OBJECT_NAME":"ONEWEB-0118","OBJECT_ID":"2020-100G","EPOCH":"2025-08-17T12:37:21.222048","MEAN_MOTION":13.1244289,"ECCENTRICITY":0.0001668,"INCLINATION":87.8859,"RA_OF_ASC_NODE":50.998,"ARG_OF_PERICENTER":101.9359,"MEAN_ANOMALY":258.1957,"EPHEMERIS_TYPE":0,"CLASSIFICATION_TYPE":"U","NORAD_CAT_ID":47264,"ELEMENT_SET_NO":999,"REV_AT_EPOCH":22489,"BSTAR":-0.00089649,"MEAN_MOTION_DOT":-3.1e-6,"MEAN_MOTION_DDOT":0},{"OBJECT_NAME":"ONEWEB-0119","OBJECT_ID":"2020-100H","EPOCH":"2025-08-17T13:17:04.874496","MEAN_MOTION":13.12443535,"ECCENTRICITY":0.000173,"INCLINATION":87.8854,"RA_OF_ASC_NODE":51.0312,"ARG_OF_PERICENTER":88.4833,"MEAN_ANOMALY":271.6494,"EPHEMERIS_TYPE":0,"CLASSIFICATION_TYPE":"U","NORAD_CAT_ID":47265,"ELEMENT_SET_NO":999,"REV_AT_EPOCH":22487,"BSTAR":0.00028982,"MEAN_MOTION_DOT":1.17e-6,"MEAN_MOTION_DDOT":0},{"OBJECT_NAME":"ONEWEB-0120","OBJECT_ID":"2020-100J","EPOCH":"2025-08-17T06:30:51.037056","MEAN_MOTION":13.12440578,"ECCENTRICITY":0.0001625,"INCLINATION":87.8865,"RA_OF_ASC_NODE":51.0865,"ARG_OF_PERICENTER":91.0714,"MEAN_ANOMALY":269.0601,"EPHEMERIS_TYPE":0,"CLASSIFICATION_TYPE":"U","NORAD_CAT_ID":47266,"ELEMENT_SET_NO":999,"REV_AT_EPOCH":22486,"BSTAR":0.00096606,"MEAN_MOTION_DOT":3.6e-6,"MEAN_MOTION_DDOT":0},{"OBJECT_NAME":"ONEWEB-0121","OBJECT_ID":"2020-100K","EPOCH":"2025-08-17T13:33:26.304192","MEAN_MOTION":13.12444482,"ECCENTRICITY":0.0001795,"INCLINATION":87.8856,"RA_OF_ASC_NODE":50.9963,"ARG_OF_PERICENTER":86.6193,"MEAN_ANOMALY":273.5141,"EPHEMERIS_TYPE":0,"CLASSIFICATION_TYPE":"U","NORAD_CAT_ID":47267,"ELEMENT_SET_NO":999,"REV_AT_EPOCH":22481,"BSTAR":0.0011439,"MEAN_MOTION_DOT":4.24e-6,"MEAN_MOTION_DDOT":0},{"OBJECT_NAME":"ONEWEB-0122","OBJECT_ID":"2020-100L","EPOCH":"2025-08-17T13:26:13.277760","MEAN_MOTION":13.12443278,"ECCENTRICITY":0.0001668,"INCLINATION":87.8854,"RA_OF_ASC_NODE":51.0002,"ARG_OF_PERICENTER":85.5561,"MEAN_ANOMALY":274.5758,"EPHEMERIS_TYPE":0,"CLASSIFICATION_TYPE":"U","NORAD_CAT_ID":47268,"ELEMENT_SET_NO":999,"REV_AT_EPOCH":22472,"BSTAR":0.00089231,"MEAN_MOTION_DOT":3.34e-6,"MEAN_MOTION_DDOT":0},{"OBJECT_NAME":"ONEWEB-0123","OBJECT_ID":"2020-100M","EPOCH":"2025-08-17T13:19:23.400480","MEAN_MOTION":13.12444894,"ECCENTRICITY":0.0001805,"INCLINATION":87.8852,"RA_OF_ASC_NODE":51.0291,"ARG_OF_PERICENTER":93.9071,"MEAN_ANOMALY":266.2264,"EPHEMERIS_TYPE":0,"CLASSIFICATION_TYPE":"U","NORAD_CAT_ID":47269,"ELEMENT_SET_NO":999,"REV_AT_EPOCH":22486,"BSTAR":-0.0010667,"MEAN_MOTION_DOT":-3.71e-6,"MEAN_MOTION_DDOT":0},{"OBJECT_NAME":"ONEWEB-0124","OBJECT_ID":"2020-100N","EPOCH":"2025-08-17T13:03:02.914272","MEAN_MOTION":13.12443836,"ECCENTRICITY":0.0001943,"INCLINATION":87.8865,"RA_OF_ASC_NODE":51.0322,"ARG_OF_PERICENTER":87.9885,"MEAN_ANOMALY":272.1466,"EPHEMERIS_TYPE":0,"CLASSIFICATION_TYPE":"U","NORAD_CAT_ID":47270,"ELEMENT_SET_NO":999,"REV_AT_EPOCH":22474,"BSTAR":-0.0007066,"MEAN_MOTION_DOT":-2.41e-6,"MEAN_MOTION_DDOT":0}]
